STARLINK-2564           
1 48284U 21036J   26068.40419706 -.00002535  00000+0 -73526-4 0  9994
2 48284  53.1593  77.1004 0001545  91.2892 268.8285 15.30187265268350
AL MUNTHER              
1 63240U 25052AG  26068.64540749  .00017933  00000+0  65015-3 0  9992
2 63240  97.4001 323.9152 0008027 130.7043 229.4895 15.28381521 54798
